NORAD_CAT_ID,OBJECT_NAME,OBJECT_TYPE,EPOCH,MEAN_MOTION,ECCENTRICITY,INCLINATION,RA_OF_ASC_NODE,ARG_OF_PERICENTER,MEAN_ANOMALY,BSTAR,MEAN_MOTION_DOT,MEAN_MOTION_DDOT,TLE_LINE0,TLE_LINE1,TLE_LINE2,SEMIMAJOR_AXIS,PERIOD,APOGEE,PERIGEE,DECAYED
53280.0,STARLINK-4169,PAYLOAD,2024-04-15 22:29:46,15.08762539,0.0001705,53.2202,8.676,105.2724,254.8457,0.0013454,0.00021144,0.0,0 STARLINK-4169,1 53280U 22086AQ  24106.93734704  .00021144  00000-0  13454-2 0  9997,2 53280  53.2202   8.6760 0001705 105.2724 254.8457 15.08762539 97080,6918.117,95.442,541.162,538.803,0.0
53280.0,STARLINK-4169,PAYLOAD,2024-04-16 20:45:08,15.08862728,0.0001572,53.2197,4.5135,132.0764,228.0362,6.2273e-05,7.04e-06,0.0,0 STARLINK-4169,1 53280U 22086AQ  24107.86468326  .00000704  00000-0  62273-4 0  9998,2 53280  53.2197   4.5135 0001572 132.0764 228.0362 15.08862728 97223,6917.811,95.436,540.763,538.588,0.0
53280.0,STARLINK-4169,PAYLOAD,2024-04-16 22:20:31,15.08861986,9.59e-05,53.2178,4.2179,91.9388,268.1714,9.7767e-05,1.269e-05,0.0,0 STARLINK-4169,1 53280U 22086AQ  24107.93092493  .00001269  00000-0  97767-4 0  9997,2 53280  53.2178   4.2179 0000959  91.9388 268.1714 15.08861986 97401,6917.813,95.436,540.342,539.015,0.0
53280.0,STARLINK-4169,PAYLOAD,2024-04-17 03:06:40,15.08864445,9.86e-05,53.2177,3.3246,93.4228,266.6877,0.00014698,2.054e-05,0.0,0 STARLINK-4169,1 53280U 22086AQ  24108.12964120  .00002054  00000-0  14698-3 0  9998,2 53280  53.2177   3.3246 0000986  93.4228 266.6877 15.08864445 97434,6917.806,95.436,540.353,538.989,0.0
53280.0,STARLINK-4169,PAYLOAD,2024-04-17 20:35:57,15.08829757,0.0001285,53.2187,0.055,98.1915,261.9223,-0.0001067,-1.985e-05,0.0,0 STARLINK-4169,1 53280U 22086AQ  24108.85829973 -.00001985  00000-0 -10670-3 0  9994,2 53280  53.2187   0.0550 0001285  98.1915 261.9223 15.08829757 97378,6917.912,95.438,540.666,538.888,0.0
53280.0,STARLINK-4169,PAYLOAD,2024-04-17 22:11:20,15.08816562,0.0001471,53.2175,359.7582,50.8173,309.295,-0.00041721,-6.917e-05,0.0,0 STARLINK-4169,1 53280U 22086AQ  24108.92454351 -.00006917  00000-0 -41721-3 0  9997,2 53280  53.2175 359.7582 0001471  50.8173 309.2950 15.08816562 97386,6917.952,95.439,540.835,538.799,0.0
53280.0,STARLINK-4169,PAYLOAD,2024-04-18 20:26:44,15.08823818,0.0001264,53.2175,355.5951,74.9067,285.2065,-0.0001086,-2.015e-05,0.0,0 STARLINK-4169,1 53280U 22086AQ  24109.85190910 -.00002015  00000-0 -10860-3 0  9993,2 53280  53.2175 355.5951 0001264  74.9067 285.2065 15.08823818 97527,6917.93,95.439,540.669,538.92,0.0
53280.0,STARLINK-4169,PAYLOAD,2024-04-18 22:02:07,15.08838445,0.0001283,53.2181,355.2993,92.8128,267.3011,0.00033504,5.048e-05,0.0,0 STARLINK-4169,1 53280U 22086AQ  24109.91814707  .00005048  00000-0  33504-3 0  9994,2 53280  53.2181 355.2993 0001283  92.8128 267.3011 15.08838445 97709,6917.885,95.438,540.638,538.863,0.0
53280.0,STARLINK-4169,PAYLOAD,2024-04-18 23:37:30,15.08841338,0.000125,53.2178,354.9991,90.1961,269.9174,0.00028477,4.247e-05,0.0,0 STARLINK-4169,1 53280U 22086AQ  24109.98438448  .00004247  00000-0  28477-3 0  9998,2 53280  53.2178 354.9991 0001250  90.1961 269.9174 15.08841338 97544,6917.876,95.437,540.606,538.877,0.0
53280.0,STARLINK-4169,PAYLOAD,2024-04-19 21:52:54,15.0885413,0.0001673,53.2193,350.8406,109.3384,250.7789,0.00073849,0.00011489,0.0,0 STARLINK-4169,1 53280U 22086AQ  24110.91174327  .00011489  00000-0  73849-3 0  9995,2 53280  53.2193 350.8406 0001673 109.3384 250.7789 15.08854130 97856,6917.837,95.437,540.86,538.545,0.0
53280.0,STARLINK-4169,PAYLOAD,2024-04-20 01:03:40,15.08869039,0.0001507,53.219,350.2406,90.2876,269.8289,0.00091877,0.00014376,0.0,0 STARLINK-4169,1 53280U 22086AQ  24111.04421895  .00014376  00000-0  91877-3 0  9994,2 53280  53.2190 350.2406 0001507  90.2876 269.8289 15.08869039 97701,6917.792,95.436,540.699,538.614,0.0
53280.0,STARLINK-4169,PAYLOAD,2024-04-20 20:08:17,15.08849081,0.0002335,53.2186,346.6708,130.3991,229.7205,-2.1769e-05,-6.35e-06,0.0,0 STARLINK-4169,1 53280U 22086AQ  24111.83909665 -.00000635  00000-0 -21769-4 0  9996,2 53280  53.2186 346.6708 0002335 130.3991 229.7205 15.08849081 97825,6917.853,95.437,541.333,538.102,0.0
53280.0,STARLINK-4169,PAYLOAD,2024-04-20 21:43:41,15.08845994,0.0001957,53.2185,346.3732,136.6594,223.4552,-8.1428e-05,-1.584e-05,0.0,0 STARLINK-4169,1 53280U 22086AQ  24111.90533625 -.00001584  00000-0 -81428-4 0  9995,2 53280  53.2185 346.3732 0001957 136.6594 223.4552 15.08845994 98001,6917.862,95.437,541.081,538.373,0.0
53280.0,STARLINK-4169,PAYLOAD,2024-04-20 23:19:04,15.08842879,0.0001539,53.2183,346.0852,112.7742,247.3413,-7.0468e-05,-1.409e-05,0.0,0 STARLINK-4169,1 53280U 22086AQ  24111.97158113 -.00001409  00000-0 -70468-4 0  9995,2 53280  53.2183 346.0852 0001539 112.7742 247.3413 15.08842879 98016,6917.872,95.437,540.801,538.672,0.0
53280.0,STARLINK-4169,PAYLOAD,2024-04-21 21:34:28,15.08843782,0.000166,53.219,341.9183,86.7801,273.3381,1.2423e-05,-9e-07,0.0,0 STARLINK-4169,1 53280U 22086AQ  24112.89894379 -.00000090  00000-0  12423-4 0  9999,2 53280  53.2190 341.9183 0001660  86.7801 273.3381 15.08843782 98158,6917.869,95.437,540.882,538.585,0.0
53280.0,STARLINK-4169,PAYLOAD,2024-04-22 00:45:14,15.08847477,0.0001631,53.2187,341.321,87.3934,272.7244,0.00013193,1.813e-05,0.0,0 STARLINK-4169,1 53280U 22086AQ  24113.03142232  .00001813  00000-0  13193-3 0  9997,2 53280  53.2187 341.3210 0001631  87.3934 272.7244 15.08847477 98001,6917.858,95.437,540.851,538.594,0.0
53280.0,STARLINK-4169,PAYLOAD,2024-04-22 19:49:53,15.08827195,0.0001548,53.2182,337.7549,112.9425,247.1731,1.2192e-05,-9.4e-07,0.0,0 STARLINK-4169,1 53280U 22086AQ  24113.82631480 -.00000094  00000-0  12192-4 0  9992,2 53280  53.2182 337.7549 0001548 112.9425 247.1731 15.08827195 98122,6917.92,95.438,540.855,538.714,0.0
53280.0,STARLINK-4169,PAYLOAD,2024-04-22 21:25:16,15.0882733,0.0001619,53.2181,337.4572,116.887,243.2288,1.5093e-05,-4.8e-07,0.0,0 STARLINK-4169,1 53280U 22086AQ  24113.89255507 -.00000048  00000-0  15093-4 0  9993,2 53280  53.2181 337.4572 0001619 116.8870 243.2288 15.08827330 98305,6917.919,95.438,540.904,538.664,0.0
53280.0,STARLINK-4169,PAYLOAD,2024-04-23 21:16:03,15.08846948,0.0001408,53.217,332.9962,98.2629,261.8523,0.00039914,6.071e-05,0.0,0 STARLINK-4169,1 53280U 22086AQ  24114.88615458  .00006071  00000-0  39914-3 0  9996,2 53280  53.2170 332.9962 0001408  98.2629 261.8523 15.08846948 98288,6917.859,95.437,540.698,538.75,0.0
53280.0,STARLINK-4169,PAYLOAD,2024-04-24 00:26:49,15.08850193,0.0001316,53.2165,332.397,100.4458,259.6682,0.00056751,8.758e-05,0.0,0 STARLINK-4169,1 53280U 22086AQ  24115.01863405  .00008758  00000-0  56751-3 0  9991,2 53280  53.2165 332.3970 0001316 100.4458 259.6682 15.08850193 98478,6917.849,95.437,540.625,538.804,0.0
53280.0,STARLINK-4169,PAYLOAD,2024-04-24 21:06:50,15.08852691,0.0001357,53.2177,328.5297,100.6952,259.4193,0.00030477,4.567e-05,0.0,0 STARLINK-4169,1 53280U 22086AQ  24115.87974927  .00004567  00000-0  30477-3 0  9998,2 53280  53.2177 328.5297 0001357 100.6952 259.4193 15.08852691 98601,6917.842,95.437,540.645,538.768,0.0
53280.0,STARLINK-4169,PAYLOAD,2024-04-25 14:36:04,15.08854652,0.0001093,53.2174,325.2588,90.1568,269.955,0.00022875,3.356e-05,0.0,0 STARLINK-4169,1 53280U 22086AQ  24116.60838082  .00003356  00000-0  22875-3 0  9999,2 53280  53.2174 325.2588 0001093  90.1568 269.9550 15.08854652 98712,6917.836,95.437,540.457,538.944,0.0
53280.0,STARLINK-4169,PAYLOAD,2024-04-25 20:57:36,15.08852451,0.0001127,53.2173,324.0754,111.3693,248.7419,1.4135e-05,-6.3e-07,0.0,0 STARLINK-4169,1 53280U 22086AQ  24116.87333871 -.00000063  00000-0  14135-4 0  9998,2 53280  53.2173 324.0754 0001127 111.3693 248.7419 15.08852451 98754,6917.842,95.437,540.487,538.928,0.0
53280.0,STARLINK-4169,PAYLOAD,2024-04-26 00:08:22,15.08853784,0.0001152,53.2174,323.4786,113.0648,247.0466,3.2516e-05,2.3e-06,0.0,0 STARLINK-4169,1 53280U 22086AQ  24117.00581779  .00000230  00000-0  32516-4 0  9994,2 53280  53.2174 323.4786 0001152 113.0648 247.0466 15.08853784 98608,6917.838,95.437,540.5,538.906,0.0
53280.0,STARLINK-4169,PAYLOAD,2024-04-26 06:29:54,15.08865005,0.0001289,53.218,322.2923,61.3818,298.7304,0.00010902,1.449e-05,0.0,0 STARLINK-4169,1 53280U 22086AQ  24117.27076781  .00001449  00000-0  10902-3 0  9992,2 53280  53.2180 322.2923 0001289  61.3818 298.7304 15.08865005 98647,6917.804,95.436,540.561,538.777,0.0
53280.0,STARLINK-4169,PAYLOAD,2024-04-26 20:48:23,15.08852228,0.0001201,53.2172,319.6129,75.9117,284.2009,8.2108e-05,1.02e-05,0.0,0 STARLINK-4169,1 53280U 22086AQ  24117.86693352  .00001020  00000-0  82108-4 0  9999,2 53280  53.2172 319.6129 0001201  75.9117 284.2009 15.08852228 98907,6917.843,95.437,540.539,538.877,0.0
53280.0,STARLINK-4169,PAYLOAD,2024-04-26 23:59:08,15.08856627,0.0001161,53.2171,319.018,107.2048,252.9071,0.0001226,1.665e-05,0.0,0 STARLINK-4169,1 53280U 22086AQ  24117.99940865  .00001665  00000-0  12260-3 0  9993,2 53280  53.2171 319.0180 0001161 107.2048 252.9071 15.08856627 98755,6917.83,95.437,540.498,538.891,0.0
53280.0,STARLINK-4169,PAYLOAD,2024-04-27 06:20:40,15.08868614,0.000148,53.2186,317.8315,88.0447,272.0714,0.00030198,4.525e-05,0.0,0 STARLINK-4169,1 53280U 22086AQ  24118.26436151  .00004525  00000-0  30198-3 0  9990,2 53280  53.2186 317.8315 0001480  88.0447 272.0714 15.08868614 98790,6917.793,95.436,540.682,538.634,0.0
53280.0,STARLINK-4169,PAYLOAD,2024-04-27 20:39:09,15.08847957,0.0001175,53.2166,315.156,104.9049,255.2073,4.3655e-06,-2.18e-06,0.0,0 STARLINK-4169,1 53280U 22086AQ  24118.86052641 -.00000218  00000-0  43655-5 0  9994,2 53280  53.2166 315.1560 0001175 104.9049 255.2073 15.08847957 98886,6917.856,95.437,540.534,538.908,0.0
53280.0,STARLINK-4169,PAYLOAD,2024-04-28 06:11:27,15.08851804,0.0001156,53.2163,313.3696,95.2335,264.8789,6.4388e-05,7.37e-06,0.0,0 STARLINK-4169,1 53280U 22086AQ  24119.25796214  .00000737  00000-0  64388-4 0  9999,2 53280  53.2163 313.3696 0001156  95.2335 264.8789 15.08851804 99115,6917.844,95.437,540.509,538.91,0.0
